[{"OBJECT_NAME":"STARLINK-31554","OBJECT_ID":"2024-045T","EPOCH":"2026-03-09T10:58:10.623360","MEAN_MOTION":15.27573123,"ECCENTRICITY":0.00014722,"INCLINATION":43.0054,"RA_OF_ASC_NODE":94.0421,"ARG_OF_PERICENTER":276.0564,"MEAN_ANOMALY":84.012,"EPHEMERIS_TYPE":0,"CLASSIFICATION_TYPE":"U","NORAD_CAT_ID":59195,"ELEMENT_SET_NO":999,"REV_AT_EPOCH":11312,"BSTAR":-2.7212081e-5,"MEAN_MOTION_DOT":-1.011e-5,"MEAN_MOTION_DDOT":0},{"OBJECT_NAME":"FLOCK 4G-18","OBJECT_ID":"2025-009BZ","EPOCH":"2026-03-09T04:35:14.656704","MEAN_MOTION":15.27241676,"ECCENTRICITY":0.00041001,"INCLINATION":97.4054,"RA_OF_ASC_NODE":150.5008,"ARG_OF_PERICENTER":335.7331,"MEAN_ANOMALY":24.3715,"EPHEMERIS_TYPE":0,"CLASSIFICATION_TYPE":"U","NORAD_CAT_ID":62680,"ELEMENT_SET_NO":999,"REV_AT_EPOCH":12126,"BSTAR":0.0004431856,"MEAN_MOTION_DOT":0.00011766,"MEAN_MOTION_DDOT":0}]
