STARLINK-31554          
1 59195U 24045T   26068.45706740 -.00001011  00000+0 -27212-4 0  9991
2 59195  43.0054  94.0421 0001472 276.0564  84.0120 15.27573123113120
FLOCK 4G-18             
1 62680U 25009BZ  26068.19114186  .00011766  00000+0  44319-3 0  9995
2 62680  97.4054 150.5008 0004100 335.7331  24.3715 15.27241676121267
